{"카페":[{"place_name":"스타벅스 테헤란로아남타워","place_url":"http://place.map.kakao.com/223519842","distance":"0","image_url":"https://img1.kakaocdn.net/relay/local/R640x320/?fname=http%3A%2F%2Ft1.daumcdn.net%2Fplace%2F0B2F95E40FDB443484BA84ECFA84237C","rating":"아직 평가가 없습니다."},{"place_name":"다향","place_url":"http://place.map.kakao.com/16735488","distance":"36","image_url":"https://img1.kakaocdn.net/relay/local/R640x320/?fname=http%3A%2F%2Fpostfiles4.naver.net%2FMjAxOTEwMjVfMjY4%2FMDAxNTcyMDA0Njk1NDg5.vbwvaLk6bAG70YRp5z5wrnCY5T5eXls23zWNyNy1MOMg.VMSgLYN9ZIsxT4Y8CIeNxAiR8aooTV2-qZ3IHVr6Yskg.JPEG.hwangmari%2FIMG_8067.JPG%3Ftype%3Dw773","rating":"아직 평가가 없습니다."},{"place_name":"커피나무","place_url":"http://place.map.kakao.com/21128814","distance":"47","image_url":"https://img1.kakaocdn.net/relay/local/R640x320/?fname=http%3A%2F%2Ft1.daumcdn.net%2Flocal%2FkakaomapPhoto%2Freview%2Ff765236966fde7043fc69189701459c7faf1680d%3Foriginal","rating":"3.5점/5.0점"},{"place_name":"아리스타커피 선릉2호점","place_url":"http://place.map.kakao.com/1333424418","distance":"64","image_url":"https://img1.kakaocdn.net/relay/local/R640x320/?fname=http%3A%2F%2Ft1.daumcdn.net%2Flocalfiy%2F4068CB732DDD4FCC93220564D3F46B7E","rating":"4.3점/5.0점"}],"중식":[{"place_name":"오한수 우육면가 선릉점","place_url":"http://place.map.kakao.com/1495322155","distance":"39","image_url":"https://img1.kakaocdn.net/relay/local/R640x320/?fname=http%3A%2F%2Ft1.daumcdn.net%2Flocal%2FkakaomapPhoto%2Freview%2F52923e8171c36915cba1500c3e3b0ecd76ed73bc%3Foriginal","rating":"4.5점/5.0점"},{"place_name":"신강양꼬치 선릉점","place_url":"http://place.map.kakao.com/1946110910","distance":"70","image_url":"https://img1.kakaocdn.net/relay/local/R640x320/?fname=http%3A%2F%2Ft1.daumcdn.net%2Fplace%2F3C86FE0522FD4557BE05C2CC58C59F59","rating":"3.0점/5.0점"},{"place_name":"예림","place_url":"http://place.map.kakao.com/24858094","distance":"101","image_url":"https://img1.kakaocdn.net/relay/local/R640x320/?fname=http%3A%2F%2Ft1.daumcdn.net%2Fplace%2F525B49E67AF74B00BAB0331DB579AEF0","rating":"2.5점/5.0점"},{"place_name":"치찌중화식탁","place_url":"http://place.map.kakao.com/790891598","distance":"157","image_url":"https://img1.kakaocdn.net/relay/local/R640x320/?fname=http%3A%2F%2Ft1.daumcdn.net%2Fplace%2FD834122D76B54170A721C7AF4D5DD8DA","rating":"2.2점/5.0점"}],"한식":[{"place_name":"빨강우산부대찌개 선릉본점","place_url":"http://place.map.kakao.com/1812411737","distance":"35","image_url":"https://img1.kakaocdn.net/relay/local/R640x320/?fname=http%3A%2F%2Ft1.daumcdn.net%2Fplace%2F2ADC3DE5C9E94DAF9B195D96C292CE2F","rating":"5.0점/5.0점"},{"place_name":"시골밥상","place_url":"http://place.map.kakao.com/16529431","distance":"35","image_url":"https://img1.kakaocdn.net/relay/local/R640x320/?fname=http%3A%2F%2Ft1.daumcdn.net%2Fplace%2FC424A132548542399890DDF0E22F4BAE","rating":"아직 평가가 없습니다."},{"place_name":"밀밭식당","place_url":"http://place.map.kakao.com/16068911","distance":"41","image_url":"https://img1.kakaocdn.net/relay/local/R640x320/?fname=http%3A%2F%2Ft1.daumcdn.net%2Fplace%2F639EF951864F4CA984F400CB48B9266F","rating":"아직 평가가 없습니다."},{"place_name":"설렁탕애깍두기","place_url":"http://place.map.kakao.com/2084376796","distance":"50","image_url":"https://img1.kakaocdn.net/relay/local/R640x320/?fname=http%3A%2F%2Ft1.kakaocdn.net%2Ffiy_reboot%2Fplace%2FC6E83F37759945778244AFE17EAA63E9","rating":"아직 평가가 없습니다."}],"양식":[{"place_name":"타코벨 선릉점","place_url":"http://place.map.kakao.com/617917436","distance":"99","image_url":"https://img1.kakaocdn.net/relay/local/R640x320/?fname=http%3A%2F%2Ft1.daumcdn.net%2Fplace%2F1F40215D568341C2A433166E4762F189","rating":"3.0점/5.0점"},{"place_name":"아임샌드","place_url":"http://place.map.kakao.com/1347022463","distance":"153","image_url":"https://img1.kakaocdn.net/relay/local/R640x320/?fname=http%3A%2F%2Ft1.daumcdn.net%2Fplace%2F88FA361B190041B6B5A17CB7EFE42F7B","rating":"아직 평가가 없습니다."},{"place_name":"코르바니","place_url":"http://place.map.kakao.com/313220615","distance":"190","image_url":"https://img1.kakaocdn.net/relay/local/R640x320/?fname=http%3A%2F%2Ft1.daumcdn.net%2Flocalad_thumb%2Ft%2Fefd9d2add42aa61a02f0b09f8934e21507ea103e","rating":"4.6점/5.0점"},{"place_name":"메이크샐러드 선릉점","place_url":"http://place.map.kakao.com/186289946","distance":"203","image_url":"https://img1.kakaocdn.net/relay/local/R640x320/?fname=http%3A%2F%2Ft1.daumcdn.net%2Fplace%2F2606729F283D44B8A8438DBC18EFF9FD","rating":"4.2점/5.0점"}],"돈까스":[{"place_name":"사보텐 선릉역점","place_url":"http://place.map.kakao.com/21628005","distance":"94","image_url":"https://img1.kakaocdn.net/relay/local/R640x320/?fname=http%3A%2F%2Ft1.daumcdn.net%2Fplace%2F12FBB4C554B34A53882909A0B4BFBD5E","rating":"3.0점/5.0점"},{"place_name":"아랑졸돈까스","place_url":"http://place.map.kakao.com/27487473","distance":"155","image_url":"https://img1.kakaocdn.net/relay/local/R640x320/?fname=http%3A%2F%2Ft1.daumcdn.net%2Fplace%2FD0BB8054AF784C12BCA43DEDBCC85476","rating":"4.0점/5.0점"},{"place_name":"호타루 선릉점","place_url":"http://place.map.kakao.com/27512438","distance":"159","image_url":"https://img1.kakaocdn.net/relay/local/R640x320/?fname=http%3A%2F%2Ft1.daumcdn.net%2Fplace%2F75A2DF8239B84F9F8F071361A0225D7B","rating":"2.8점/5.0점"},{"place_name":"소소한 브라더","place_url":"http://place.map.kakao.com/349083535","distance":"161","image_url":"https://img1.kakaocdn.net/relay/local/R640x320/?fname=http%3A%2F%2Ft1.daumcdn.net%2Fplace%2FABE24EB5CD7943BABA03EF961D22F266","rating":"아직 평가가 없습니다."}],"초밥":[{"place_name":"회방 선릉본점","place_url":"http://place.map.kakao.com/1494221981","distance":"106","image_url":"https://img1.kakaocdn.net/relay/local/R640x320/?fname=http%3A%2F%2Ft1.kakaocdn.net%2Ffiy_reboot%2Fplace%2F28FFEC81880743B7B3A7156780092E9E","rating":"아직 평가가 없습니다."},{"place_name":"오또상스시","place_url":"http://place.map.kakao.com/474901434","distance":"157","image_url":"https://img1.kakaocdn.net/relay/local/R640x320/?fname=http%3A%2F%2Ft1.daumcdn.net%2Flocalfiy%2Fsearchregister_1933664116","rating":"3.8점/5.0점"},{"place_name":"코우","place_url":"http://place.map.kakao.com/2040666209","distance":"159","image_url":"https://img1.kakaocdn.net/relay/local/R640x320/?fname=http%3A%2F%2Ft1.daumcdn.net%2Flocalfiy%2F88F20ACBF219465A912A3A3EDDB8CE2C","rating":"4.3점/5.0점"},{"place_name":"임정호스시 선릉점","place_url":"http://place.map.kakao.com/409512889","distance":"162","image_url":"https://img1.kakaocdn.net/relay/local/R640x320/?fname=http%3A%2F%2Fpostfiles10.naver.net%2FMjAyMTAxMTNfNiAg%2FMDAxNjEwNDk2MjA1NzE3.qeBMCVlAs4vBzNNDlMIEfRM3mfwv3odsa53HvgMIBgwg.DeaoMjx3huCERYpkkrmDoUZkDBJaao8mFx3dZVFWPYcg.JPEG.goakfrdkdy%2FCollageMaker%25EF%25BC%25BF20210113%25EF%25BC%25BF090115881.jpg%3Ftype%3Dw580","rating":"5.0점/5.0점"}],"회":[{"place_name":"회방 선릉본점","place_url":"http://place.map.kakao.com/1494221981","distance":"106","image_url":"https://img1.kakaocdn.net/relay/local/R640x320/?fname=http%3A%2F%2Ft1.kakaocdn.net%2Ffiy_reboot%2Fplace%2F28FFEC81880743B7B3A7156780092E9E","rating":"아직 평가가 없습니다."},{"place_name":"니지엔쿠모","place_url":"http://place.map.kakao.com/27140650","distance":"126","image_url":"https://img1.kakaocdn.net/relay/local/R640x320/?fname=http%3A%2F%2Ft1.daumcdn.net%2Fplace%2FE14C7564B2E14B5382E1147B0F10B332","rating":"3.8점/5.0점"},{"place_name":"영덕물회","place_url":"http://place.map.kakao.com/9257454","distance":"152","image_url":"https://img1.kakaocdn.net/relay/local/R640x320/?fname=http%3A%2F%2Ft1.daumcdn.net%2Fplace%2F571F5F9FE8AF48309ED168C50C7F8F5F","rating":"4.5점/5.0점"},{"place_name":"황금어장","place_url":"http://place.map.kakao.com/10960059","distance":"156","image_url":"https://img1.kakaocdn.net/relay/local/R640x320/?fname=http%3A%2F%2Ft1.daumcdn.net%2Fplace%2F0EA79040287D4108AFED890A711524EA","rating":"4.3점/5.0점"}],"피자":[{"place_name":"기네스하우스","place_url":"http://place.map.kakao.com/758295389","distance":"105","image_url":"https://img1.kakaocdn.net/relay/local/R640x320/?fname=http%3A%2F%2Ft1.kakaocdn.net%2Ffiy_reboot%2Fplace%2F2752B3CC2BE8445C83DC4D3BD2C8079F","rating":"아직 평가가 없습니다."},{"place_name":"일미리금계찜닭 선릉점","place_url":"http://place.map.kakao.com/25718870","distance":"214","image_url":"https://img1.kakaocdn.net/relay/local/R640x320/?fname=http%3A%2F%2Ft1.daumcdn.net%2Fplace%2FCEF44AB8E24344A1ADFA258D49D9761D","rating":"2.6점/5.0점"},{"place_name":"참치그라","place_url":"http://place.map.kakao.com/10770221","distance":"229","image_url":"https://img1.kakaocdn.net/relay/local/R640x320/?fname=http%3A%2F%2Ft1.daumcdn.net%2Fplace%2FD1D3485454CD4729BEE2AB511E019F15","rating":"3.9점/5.0점"},{"place_name":"맥주를듣는사람들 아크 선릉점","place_url":"http://place.map.kakao.com/1411874093","distance":"288","image_url":"https://img1.kakaocdn.net/relay/local/R640x320/?fname=http%3A%2F%2Ft1.daumcdn.net%2Fplace%2FEC605EDD0F734E4F95BAE238B536BA15","rating":"4.8점/5.0점"}],"치킨":[{"place_name":"맘스터치 강남선릉점","place_url":"http://place.map.kakao.com/2097014759","distance":"149","image_url":"https://img1.kakaocdn.net/relay/local/R640x320/?fname=http%3A%2F%2Ft1.kakaocdn.net%2Ffiy_reboot%2Fplace%2FC7EB5C0A122D4DAC9F1D15749D522C63","rating":"3.2점/5.0점"},{"place_name":"하오마라 선릉점","place_url":"http://place.map.kakao.com/1203701087","distance":"159","image_url":"https://img1.kakaocdn.net/relay/local/R640x320/?fname=http%3A%2F%2Ft1.daumcdn.net%2Fplace%2F15F5AAD85E8C47F581E81962FA037A6C","rating":"3.3점/5.0점"},{"place_name":"도담치킨 선릉역점","place_url":"http://place.map.kakao.com/1118311250","distance":"172","image_url":"https://img1.kakaocdn.net/relay/local/R640x320/?fname=http%3A%2F%2Ft1.daumcdn.net%2Fplace%2FF48384EA1370484B90C99B0E9384F87F","rating":"아직 평가가 없습니다."},{"place_name":"대왕통닭","place_url":"http://place.map.kakao.com/772838102","distance":"181","image_url":"https://img1.kakaocdn.net/relay/local/R640x320/?fname=http%3A%2F%2Ft1.daumcdn.net%2Fplace%2F993BF49A96604BF0BD8D437A8FEE2095","rating":"5.0점/5.0점"}]}